#dP2019  1 18  0  0  0.00000000      96 __u+U ITR00 FIT  IAC
## 2036 432000.00000000   900.00000000 58501 0.0000000000000
+   97   C01C02C03C04C05C06C07C08C09C10C11C12C13C14C32E01E02
+        E03E04E05E07E08E09E11E12E13E14E15E18E19E21E24E25E26
+        E27E30E31E33E36G01G02G03G04G05G06G07G08G09G10G11G12
+        G13G14G15G16G17G18G19G20G21G22G23G24G25G26G27G28G29
+        G30G31G32J01J02J07R01R02R03R04R05R07R08R09R10R11R13
+        R14R15R16R17R18R19R20R21R22R23R24R26  0  0  0  0  0
++        12 12 12 12 12  8  9  8  8  8  8  8  8  8 14  5  5
++         5  5  5  5  5  5  5  5  6  5  6  5  5  5  5  5  4
++         5  5  5  6  6  3  3  3  5  3  3  3  3  3  3  3  3
++         3  3  3  3  3  3  3  3  3  3  3  3  3  3  3  3  3
++         3  3  3  9  9 15  6  6  7  5  5  5  5  5  5  5  5
++         5  5  6  5  5  5  5  5  5  5  6  8  0  0  0  0  0
%c M  cc GPS ccc cccc cccc cccc cccc ccccc ccccc ccccc ccccc
%c cc cc ccc ccc cccc cccc cccc cccc ccccc ccccc ccccc ccccc
%f  0.0000000  0.000000000  0.00000000000  0.000000000000000
%f  0.0000000  0.000000000  0.00000000000  0.000000000000000
%i    0    0    0    0      0      0      0      0         0
%i    0    0    0    0      0      0      0      0         0
/* INFORMATION & ANALYSIS CENTER (IAC) OF MCC   (RAPID DATA)
/* S/V CLOCKS ARE ALIGNED TO GPS & GLONASS TIME RESPECTIVELY
/* USING THE BROADCAST EPHEMERIS                            
/* PCV:IGS14_2035 OL/AL:FES2004  NONE     YN ORB:CoN CLK:CoN
*  2019 01 18 12  0  0.00000000
PC01 -32297.503101  27101.028947    964.946182    103.440893
PC02   4307.353358  41931.349161  -1005.831641   -253.893635
PC03 -14818.902593  39435.874320    250.309200    -97.498577
PC04 -39648.628414  14399.224234    494.436814   -209.192562
PC05  21867.971545  36004.539914  -1289.661126    -74.931683
PC06  -7429.651925  32814.712372 -24923.889418    288.981769
PC07 -18050.346150  21995.289418  31114.915650    193.837455
PC08 -22510.722464  34939.320047  -7832.664026     91.974971
PC09   2319.346948  39685.452572 -13348.371074    459.431837
PC10  -1313.596738  25776.734987  33487.218519   -417.986542
PC11 -14560.824946  14283.839658  19135.376665    -97.996469
PC12 -11207.777573 -16361.236341  19667.101541    354.717419
PC13 -12844.431870  35793.515310 -18429.727317   -491.575190
PC14 -23416.145636  -4519.002576 -14478.645312    755.683547
PC32  22192.207189  16888.658837  -1055.511251 999999.999999
PE01  16548.429080 -13758.325596 -20320.263768   -523.366289
PE02 -16520.765281  13772.681106  20342.722472     43.834798
PE03  -6604.660705  18937.986280 -21777.466715   -123.540789
PE04  -9529.873540 -26807.827471   8168.778861   -202.562858
PE05 -18983.361960    -92.801534 -22714.835894    122.973258
PE07  20206.883867  18994.249612  10359.432567   -114.846115
PE08   9858.903913  26704.100504  -8138.774658   6421.046229
PE09 -20311.707653 -18838.717627 -10407.924592   6554.640043
PE11 -13335.473644  -9822.294337  24537.576630   5719.987697
PE12   1557.609532 -25116.524980  15609.793691   5969.511257
PE13  13219.271983   9864.435871 -24565.555186    381.880138
PE14  -5447.379200 -26351.072167   2931.461803   6458.129058
PE15  -1191.503621  24932.432944 -15895.284923    922.625564
PE18  15798.304889  19751.278453 -16769.709978   5597.209969
PE19   8024.927300 -17319.473319  22621.590000     -9.031430
PE21  29125.696860  -3444.450986  -3996.793459   -515.043003
PE24 -24590.784006  -8706.826372 -14018.920464   6279.699739
PE25 -29135.574493   3422.816375   3963.067379   1920.210861
PE26  20144.205112 -10694.272197 -18853.812477   5005.913564
PE27  24260.954891   8830.303769  14477.152318    547.270037
PE30   5635.702187  15912.143029  24306.552986   5178.779923
PE31  -5184.768416 -15897.093552 -24417.882066    929.542757
PE33  14934.122252 -25474.374224  -2069.588967    847.933720
PE36 -19948.599269  11026.336180  18896.228870    758.228286
PG01 -10178.844566  20424.150131 -13492.739397   -147.434944
PG02  21336.966925 -13920.749950  -6538.545512   -116.325232
PG03  -1166.494330  15539.369790 -21552.855702    177.966167
PG04  10924.019081  21621.752095  10899.814709     87.237091
PG05  20791.361868  -4971.700974  15768.000955      0.843929
PG06  20354.954376  -2217.044832 -16892.126531    294.444659
PG07   4339.619899  15702.798661  21135.660960     49.435678
PG08  -7511.285593  19618.687698  16189.067071   -129.497774
PG09   7980.477613  24944.795920   4345.943016    470.233471
PG10 -23912.711655 -11239.089517   3631.154560    133.481450
PG11  -8185.610091  25157.117335  -4004.528789   -673.610221
PG12   4621.583951 -14097.389556 -22236.365985    275.372728
PG13  12749.882549 -12556.458331  19497.351344    -77.910385
PG14 -15222.432974  -4716.049337 -20973.505012    -92.954515
PG15   4616.252709 -21933.931595  13687.066309   -331.739791
PG16 -20742.096600   2508.565205  16486.490520    -13.489586
PG17  13360.212669  14878.508941 -17122.720784     -3.033093
PG18 -16991.344739  19942.570781  -4320.395789     16.994170
PG19  14950.572339   4601.532948 -21739.917031   -362.078694
PG20 -18647.660852 -14053.117109  12666.062592    521.252375
PG21  -7738.402313 -14292.328463  21827.415248   -266.892285
PG22  -9602.150263  13351.372085 -20615.635509   -625.488588
PG23   1084.138235  25693.540386  -5395.672460   -200.150611
PG24  13014.963848 -21157.472811  -9081.354755    -60.955589
PG25  -8176.104636 -16859.798671 -19119.189957   -707.646345
PG26 -25262.441597  -2366.417037   8134.240660     99.760882
PG27 -12625.150424   9823.401579  21060.542811    -51.154671
PG28  21786.045014  14251.316758   5633.780489    762.283544
PG29  -3738.361215 -26273.423282   1083.022488    290.619477
PG30  14705.006537   7743.183498  20764.207950    -37.866366
PG31 -21908.874803   4291.189942 -14709.455301     64.914053
PG32 -15320.363297 -11665.825301 -18299.480788   -269.275194
PJ01 -23717.570511  18475.377050 -24948.610889   -210.858823
PJ02 -31379.075891  25918.546423  15694.684002     -0.734084
PJ07 -25387.028585  33672.112229    -41.632138    656.310886
PR01  -6520.652243   9196.000938 -22886.388882     38.111841
PR02  10080.974475  19695.360557 -12615.312995    349.944272
PR03  18630.997474  16761.417352   4662.602492     -9.627500
PR04  16085.460718   3647.931470  19461.196595    291.778680
PR05   4590.567361 -10716.426142  22693.855596     20.228555
PR07 -18706.420493 -16618.019904  -5031.060817    -56.092387
PR08 -16413.877361  -4366.203823 -18988.846814     19.492074
PR09  -2653.961935 -10803.488677 -22941.302049     49.624271
PR10 -18137.983673  -4302.449174 -17393.243369     39.916215
PR11 -24936.763837   5208.957355   -787.477504    -53.884302
PR13   1491.288053  10788.522693  23047.993550    -19.122510
PR14  18292.405385   4308.674613  17262.649540     35.058294
PR15  24995.223961  -4770.656362   1730.266374     99.350789
PR16  17150.105738 -11525.581903 -14895.408477 999999.999999
PR17   6688.035007  11840.883849 -21572.612278    197.169086
PR18  12199.888739  -6181.137317 -21524.186529     30.244278
PR19  11547.588224 -20552.054622  -9734.209673    -61.962246
PR20   3483.994472 -23483.797469   9407.081002   -365.989641
PR21  -6907.636097 -11238.776188  21834.767369    -26.246631
PR22 -12452.167714   8509.901298  20543.972128    -64.296457
PR23  -9722.944397  23022.935982   5103.256178    203.991369
PR24  -2202.681798  23015.477046 -10776.509312   -176.163716
PR26   4052.355418 -24041.557918   7475.606676     16.485348
EOF
